{
  "type": "FeatureCollection",
  "features": [
    {
      "type": "Feature",
      "properties": {
        "norad_id": 34886,
        "name": "COSMOS 2251 DEB",
        "group": "cosmos-2251-debris",
        "lat": -67.45153724438256,
        "lon": 47.225346860147475,
        "alt_km": 465.1532322194853,
        "timestamp": "2025-12-11T15:53:39.939271+00:00",
        "meta_object_name": "COSMOS 2251 DEB",
        "meta_object_id": "1993-036ACZ",
        "meta_epoch": "2025-12-06T20:50:12.525792",
        "meta_mean_motion": 15.37603061,
        "meta_eccentricity": 0.00307569,
        "meta_inclination": 73.9508,
        "meta_ra_of_asc_node": 193.7093,
        "meta_arg_of_pericenter": 18.7929,
        "meta_mean_anomaly": 341.4404,
        "meta_ephemeris_type": 0,
        "meta_classification_type": "U",
        "meta_norad_cat_id": 34886,
        "meta_element_set_no": 999,
        "meta_rev_at_epoch": 62908,
        "meta_bstar": 0.0027638496,
        "meta_mean_motion_dot": 0.00105044,
        "meta_mean_motion_ddot": 0,
        "tle_line1": "1 34886U 93036ACZ 25340.86820053  .00105044  00000+0  27638-2 0  9997",
        "tle_line2": "2 34886  73.9508 193.7093 0030756  18.7929 341.4404 15.37603061629089"
      },
      "geometry": {
        "type": "Point",
        "coordinates": [
          47.225346860147475,
          -67.45153724438256
        ]
      }
    },
    {
      "type": "Feature",
      "properties": {
        "norad_id": 34907,
        "name": "COSMOS 2251 DEB",
        "group": "cosmos-2251-debris",
        "lat": 17.821572178930275,
        "lon": -134.5408113284655,
        "alt_km": 450.81041257894594,
        "timestamp": "2025-12-11T15:53:39.939281+00:00",
        "meta_object_name": "COSMOS 2251 DEB",
        "meta_object_id": "1993-036ADC",
        "meta_epoch": "2025-12-11T05:51:35.535456",
        "meta_mean_motion": 15.42604827,
        "meta_eccentricity": 0.00202079,
        "meta_inclination": 73.9708,
        "meta_ra_of_asc_node": 51.673,
        "meta_arg_of_pericenter": 343.886,
        "meta_mean_anomaly": 16.1703,
        "meta_ephemeris_type": 0,
        "meta_classification_type": "U",
        "meta_norad_cat_id": 34907,
        "meta_element_set_no": 999,
        "meta_rev_at_epoch": 87950,
        "meta_bstar": 0.013629193,
        "meta_mean_motion_dot": 0.00648635,
        "meta_mean_motion_ddot": 0,
        "tle_line1": "1 34907U 93036ADC 25345.24416129  .00648635  00000+0  13629-1 0  9995",
        "tle_line2": "2 34907  73.9708  51.6730 0020207 343.8860  16.1703 15.42604827879500"
      },
      "geometry": {
        "type": "Point",
        "coordinates": [
          -134.5408113284655,
          17.821572178930275
        ]
      }
    },
    {
      "type": "Feature",
      "properties": {
        "norad_id": 34908,
        "name": "COSMOS 2251 DEB",
        "group": "cosmos-2251-debris",
        "lat": -72.01620868328519,
        "lon": -92.65912650987794,
        "alt_km": 796.1303404856135,
        "timestamp": "2025-12-11T15:53:39.939291+00:00",
        "meta_object_name": "COSMOS 2251 DEB",
        "meta_object_id": "1993-036ADD",
        "meta_epoch": "2025-12-09T02:40:40.417824",
        "meta_mean_motion": 14.37380886,
        "meta_eccentricity": 0.0039928,
        "meta_inclination": 74.0591,
        "meta_ra_of_asc_node": 30.3236,
        "meta_arg_of_pericenter": 47.6348,
        "meta_mean_anomaly": 340.778,
        "meta_ephemeris_type": 0,
        "meta_classification_type": "U",
        "meta_norad_cat_id": 34908,
        "meta_element_set_no": 999,
        "meta_rev_at_epoch": 87227,
        "meta_bstar": 0.00063868598,
        "meta_mean_motion_dot": 1.9e-05,
        "meta_mean_motion_ddot": 0,
        "tle_line1": "1 34908U 93036ADD 25343.11157891  .00001900  00000+0  63869-3 0  9999",
        "tle_line2": "2 34908  74.0591  30.3236 0039928  47.6348 340.7780 14.37380886872275"
      },
      "geometry": {
        "type": "Point",
        "coordinates": [
          -92.65912650987794,
          -72.01620868328519
        ]
      }
    },
    {
      "type": "Feature",
      "properties": {
        "norad_id": 34909,
        "name": "COSMOS 2251 DEB",
        "group": "cosmos-2251-debris",
        "lat": -55.72681048475893,
        "lon": -76.43314612001983,
        "alt_km": 588.7685956869973,
        "timestamp": "2025-12-11T15:53:39.939302+00:00",
        "meta_object_name": "COSMOS 2251 DEB",
        "meta_object_id": "1993-036ADE",
        "meta_epoch": "2025-12-10T14:26:38.499936",
        "meta_mean_motion": 14.77803538,
        "meta_eccentricity": 0.0084687,
        "meta_inclination": 74.0144,
        "meta_ra_of_asc_node": 80.7743,
        "meta_arg_of_pericenter": 217.0856,
        "meta_mean_anomaly": 142.445,
        "meta_ephemeris_type": 0,
        "meta_classification_type": "U",
        "meta_norad_cat_id": 34909,
        "meta_element_set_no": 999,
        "meta_rev_at_epoch": 66820,
        "meta_bstar": 0.0010159,
        "meta_mean_motion_dot": 7.719e-05,
        "meta_mean_motion_ddot": 0,
        "tle_line1": "1 34909U 93036ADE 25344.60183449  .00007719  00000+0  10159-2 0  9990",
        "tle_line2": "2 34909  74.0144  80.7743 0084687 217.0856 142.4450 14.77803538668206"
      },
      "geometry": {
        "type": "Point",
        "coordinates": [
          -76.43314612001983,
          -55.72681048475893
        ]
      }
    },
    {
      "type": "Feature",
      "properties": {
        "norad_id": 34910,
        "name": "COSMOS 2251 DEB",
        "group": "cosmos-2251-debris",
        "lat": 20.111056100191604,
        "lon": 109.20971206776184,
        "alt_km": 1442.5909432664776,
        "timestamp": "2025-12-11T15:53:39.939313+00:00",
        "meta_object_name": "COSMOS 2251 DEB",
        "meta_object_id": "1993-036ADF",
        "meta_epoch": "2025-12-04T03:27:09.174816",
        "meta_mean_motion": 13.3765034,
        "meta_eccentricity": 0.04679235,
        "meta_inclination": 73.8763,
        "meta_ra_of_asc_node": 114.9889,
        "meta_arg_of_pericenter": 235.2756,
        "meta_mean_anomaly": 311.3517,
        "meta_ephemeris_type": 0,
        "meta_classification_type": "U",
        "meta_norad_cat_id": 34910,
        "meta_element_set_no": 999,
        "meta_rev_at_epoch": 81409,
        "meta_bstar": 0.0018660381,
        "meta_mean_motion_dot": 1.821e-05,
        "meta_mean_motion_ddot": 0,
        "tle_line1": "1 34910U 93036ADF 25338.14385619  .00001821  00000+0  18660-2 0  9990",
        "tle_line2": "2 34910  73.8763 114.9889 0467923 235.2756 311.3517 13.37650340814099"
      },
      "geometry": {
        "type": "Point",
        "coordinates": [
          109.20971206776184,
          20.111056100191604
        ]
      }
    },
    {
      "type": "Feature",
      "properties": {
        "norad_id": 34911,
        "name": "COSMOS 2251 DEB",
        "group": "cosmos-2251-debris",
        "lat": 44.33798059736979,
        "lon": -96.96495120792221,
        "alt_km": 642.0948970532509,
        "timestamp": "2025-12-11T15:53:39.939323+00:00",
        "meta_object_name": "COSMOS 2251 DEB",
        "meta_object_id": "1993-036ADG",
        "meta_epoch": "2025-12-11T04:52:39.295776",
        "meta_mean_motion": 14.59367739,
        "meta_eccentricity": 0.00835313,
        "meta_inclination": 74.0413,
        "meta_ra_of_asc_node": 247.6722,
        "meta_arg_of_pericenter": 13.4623,
        "meta_mean_anomaly": 142.0531,
        "meta_ephemeris_type": 0,
        "meta_classification_type": "U",
        "meta_norad_cat_id": 34911,
        "meta_element_set_no": 999,
        "meta_rev_at_epoch": 88564,
        "meta_bstar": 0.00024963004,
        "meta_mean_motion_dot": 1.208e-05,
        "meta_mean_motion_ddot": 0,
        "tle_line1": "1 34911U 93036ADG 25345.20323259  .00001208  00000+0  24963-3 0  9991",
        "tle_line2": "2 34911  74.0413 247.6722 0083531  13.4623 142.0531 14.59367739885649"
      },
      "geometry": {
        "type": "Point",
        "coordinates": [
          -96.96495120792221,
          44.33798059736979
        ]
      }
    },
    {
      "type": "Feature",
      "properties": {
        "norad_id": 34913,
        "name": "COSMOS 2251 DEB",
        "group": "cosmos-2251-debris",
        "lat": 33.158693888619965,
        "lon": 93.68820046527095,
        "alt_km": 778.8935987317745,
        "timestamp": "2025-12-11T15:53:39.939333+00:00",
        "meta_object_name": "COSMOS 2251 DEB",
        "meta_object_id": "1993-036ADJ",
        "meta_epoch": "2025-12-10T13:00:18.152064",
        "meta_mean_motion": 14.346364,
        "meta_eccentricity": 0.0020264,
        "meta_inclination": 74.0283,
        "meta_ra_of_asc_node": 286.5252,
        "meta_arg_of_pericenter": 37.1811,
        "meta_mean_anomaly": 83.6827,
        "meta_ephemeris_type": 0,
        "meta_classification_type": "U",
        "meta_norad_cat_id": 34913,
        "meta_element_set_no": 999,
        "meta_rev_at_epoch": 65156,
        "meta_bstar": 9.4175e-05,
        "meta_mean_motion_dot": 2.41e-06,
        "meta_mean_motion_ddot": 0,
        "tle_line1": "1 34913U 93036ADJ 25344.54187676  .00000241  00000+0  94175-4 0  9999",
        "tle_line2": "2 34913  74.0283 286.5252 0020264  37.1811  83.6827 14.34636400651569"
      },
      "geometry": {
        "type": "Point",
        "coordinates": [
          93.68820046527095,
          33.158693888619965
        ]
      }
    }
  ]
}